ONEWEB-0058             
1 45161U 20008AG  26044.05337164 -.00000084  00000+0 -27579-3 0  9998
2 45161  87.8747  61.0126 0001812 100.1004 260.0328 13.10369255292160
ONEWEB-0059             
1 45162U 20008AH  26044.04991708  .00000170  00000+0  45018-3 0  9990
2 45162  87.8746  61.0136 0001777  91.3846 268.7485 13.10369619292068
ONEWEB-0062             
1 45163U 20008AJ  26044.07564016 -.00000584  00000+0 -17082-2 0  9992
2 45163  87.8761  60.9889 0001793 105.6429 254.4897 13.10374669291938
ONEWEB-0065             
1 45164U 20008AK  26044.10623614  .00000655  00000+0  18391-2 0  9998
2 45164  87.8745  60.9943 0002112  81.2602 278.8765 13.10372799291633
ONEWEB-0066             
1 45424U 20020A   26044.01184950  .00000030  00000+0  48667-4 0  9994
2 45424  87.8830  45.7679 0001694  85.5405 274.5917 13.11415080286409
ONEWEB-0067             
1 45425U 20020B   26044.04929906  .00000047  00000+0  95736-4 0  9993
2 45425  87.8844  45.6676 0001830  83.0304 277.1032 13.11418378286460
ONEWEB-0080             
1 45426U 20020C   26044.05850195  .00000388  00000+0  10584-2 0  9992
2 45426  87.8832  45.7569 0001790 100.1795 259.9535 13.11418771286430
ONEWEB-0090             
1 45427U 20020D   26044.00181882  .00000347  00000+0  94401-3 0  9994
2 45427  87.8825  45.7701 0001841  87.4356 272.6982 13.11416229286397
ONEWEB-0061             
1 45428U 20020E   26044.03375673 -.00000504  00000+0 -14574-2 0  9990
2 45428  87.8829  45.7485 0001801  87.8684 272.2650 13.11416568286355
ONEWEB-0081             
1 45429U 20020F   26044.01523144 -.00000271  00000+0 -80064-3 0  9996
2 45429  87.8830  45.7673 0001700  80.2910 279.8410 13.11415941286467
ONEWEB-0069             
1 45430U 20020G   26044.00422899  .00000239  00000+0  63962-3 0  9992
2 45430  87.8828  45.7654 0001813  86.1082 274.0253 13.11414747286392
ONEWEB-0031             
1 45431U 20020H   26044.05254804  .00000264  00000+0  70959-3 0  9999
2 45431  87.8825  45.7749 0001890  94.3604 265.7740 13.11417740286384
ONEWEB-0027             
1 45432U 20020J   26043.99835596 -.00000081  00000+0 -24280-3 0  9990
2 45432  87.9113  30.5101 0002160  92.7510 267.3869 13.17650699290001
ONEWEB-0064             
1 45433U 20020K   26044.05085100  .00000130  00000+0  33086-3 0  9994
2 45433  87.8823  45.7654 0001917  92.1358 267.9989 13.11417986286416
ONEWEB-0018             
1 45434U 20020L   26044.00676256  .00000106  00000+0  26443-3 0  9990
2 45434  87.8831  45.7694 0001656  90.9934 269.1384 13.11413704286356
ONEWEB-0083             
1 45435U 20020M   26043.99744840  .00000409  00000+0  11189-2 0  9999
2 45435  87.8830  45.7588 0001815  90.8002 269.3334 13.11417105286390
ONEWEB-0095             
1 45436U 20020N   26043.98826495  .00000624  00000+0  17244-2 0  9993
2 45436  87.8833  45.7686 0002624  86.4468 273.6960 13.11416989286391
