[{"OBJECT_NAME":"ONEWEB-0058","OBJECT_ID":"2020-008AG","EPOCH":"2026-02-13T01:16:51.309696","MEAN_MOTION":13.10369255,"ECCENTRICITY":0.0001812,"INCLINATION":87.8747,"RA_OF_ASC_NODE":61.0126,"ARG_OF_PERICENTER":100.1004,"MEAN_ANOMALY":260.0328,"EPHEMERIS_TYPE":0,"CLASSIFICATION_TYPE":"U","NORAD_CAT_ID":45161,"ELEMENT_SET_NO":999,"REV_AT_EPOCH":29216,"BSTAR":-0.00027579,"MEAN_MOTION_DOT":-8.4e-7,"MEAN_MOTION_DDOT":0},{"OBJECT_NAME":"ONEWEB-0059","OBJECT_ID":"2020-008AH","EPOCH":"2026-02-13T01:11:52.835712","MEAN_MOTION":13.10369619,"ECCENTRICITY":0.0001777,"INCLINATION":87.8746,"RA_OF_ASC_NODE":61.0136,"ARG_OF_PERICENTER":91.3846,"MEAN_ANOMALY":268.7485,"EPHEMERIS_TYPE":0,"CLASSIFICATION_TYPE":"U","NORAD_CAT_ID":45162,"ELEMENT_SET_NO":999,"REV_AT_EPOCH":29206,"BSTAR":0.00045018,"MEAN_MOTION_DOT":1.7e-6,"MEAN_MOTION_DDOT":0},{"OBJECT_NAME":"ONEWEB-0062","OBJECT_ID":"2020-008AJ","EPOCH":"2026-02-13T01:48:55.309824","MEAN_MOTION":13.10374669,"ECCENTRICITY":0.0001793,"INCLINATION":87.8761,"RA_OF_ASC_NODE":60.9889,"ARG_OF_PERICENTER":105.6429,"MEAN_ANOMALY":254.4897,"EPHEMERIS_TYPE":0,"CLASSIFICATION_TYPE":"U","NORAD_CAT_ID":45163,"ELEMENT_SET_NO":999,"REV_AT_EPOCH":29193,"BSTAR":-0.0017082,"MEAN_MOTION_DOT":-5.84e-6,"MEAN_MOTION_DDOT":0},{"OBJECT_NAME":"ONEWEB-0065","OBJECT_ID":"2020-008AK","EPOCH":"2026-02-13T02:32:58.802496","MEAN_MOTION":13.10372799,"ECCENTRICITY":0.0002112,"INCLINATION":87.8745,"RA_OF_ASC_NODE":60.9943,"ARG_OF_PERICENTER":81.2602,"MEAN_ANOMALY":278.8765,"EPHEMERIS_TYPE":0,"CLASSIFICATION_TYPE":"U","NORAD_CAT_ID":45164,"ELEMENT_SET_NO":999,"REV_AT_EPOCH":29163,"BSTAR":0.0018391,"MEAN_MOTION_DOT":6.55e-6,"MEAN_MOTION_DDOT":0},{"OBJECT_NAME":"ONEWEB-0066","OBJECT_ID":"2020-020A","EPOCH":"2026-02-13T00:17:03.796800","MEAN_MOTION":13.1141508,"ECCENTRICITY":0.0001694,"INCLINATION":87.883,"RA_OF_ASC_NODE":45.7679,"ARG_OF_PERICENTER":85.5405,"MEAN_ANOMALY":274.5917,"EPHEMERIS_TYPE":0,"CLASSIFICATION_TYPE":"U","NORAD_CAT_ID":45424,"ELEMENT_SET_NO":999,"REV_AT_EPOCH":28640,"BSTAR":4.8667e-5,"MEAN_MOTION_DOT":3.0e-7,"MEAN_MOTION_DDOT":0},{"OBJECT_NAME":"ONEWEB-0067","OBJECT_ID":"2020-020B","EPOCH":"2026-02-13T01:10:59.438784","MEAN_MOTION":13.11418378,"ECCENTRICITY":0.000183,"INCLINATION":87.8844,"RA_OF_ASC_NODE":45.6676,"ARG_OF_PERICENTER":83.0304,"MEAN_ANOMALY":277.1032,"EPHEMERIS_TYPE":0,"CLASSIFICATION_TYPE":"U","NORAD_CAT_ID":45425,"ELEMENT_SET_NO":999,"REV_AT_EPOCH":28646,"BSTAR":9.5736e-5,"MEAN_MOTION_DOT":4.7e-7,"MEAN_MOTION_DDOT":0},{"OBJECT_NAME":"ONEWEB-0080","OBJECT_ID":"2020-020C","EPOCH":"2026-02-13T01:24:14.568480","MEAN_MOTION":13.11418771,"ECCENTRICITY":0.000179,"INCLINATION":87.8832,"RA_OF_ASC_NODE":45.7569,"ARG_OF_PERICENTER":100.1795,"MEAN_ANOMALY":259.9535,"EPHEMERIS_TYPE":0,"CLASSIFICATION_TYPE":"U","NORAD_CAT_ID":45426,"ELEMENT_SET_NO":999,"REV_AT_EPOCH":28643,"BSTAR":0.0010584,"MEAN_MOTION_DOT":3.88e-6,"MEAN_MOTION_DDOT":0},{"OBJECT_NAME":"ONEWEB-0090","OBJECT_ID":"2020-020D","EPOCH":"2026-02-13T00:02:37.146048","MEAN_MOTION":13.11416229,"ECCENTRICITY":0.0001841,"INCLINATION":87.8825,"RA_OF_ASC_NODE":45.7701,"ARG_OF_PERICENTER":87.4356,"MEAN_ANOMALY":272.6982,"EPHEMERIS_TYPE":0,"CLASSIFICATION_TYPE":"U","NORAD_CAT_ID":45427,"ELEMENT_SET_NO":999,"REV_AT_EPOCH":28639,"BSTAR":0.00094401,"MEAN_MOTION_DOT":3.47e-6,"MEAN_MOTION_DDOT":0},{"OBJECT_NAME":"ONEWEB-0061","OBJECT_ID":"2020-020E","EPOCH":"2026-02-13T00:48:36.581472","MEAN_MOTION":13.11416568,"ECCENTRICITY":0.0001801,"INCLINATION":87.8829,"RA_OF_ASC_NODE":45.7485,"ARG_OF_PERICENTER":87.8684,"MEAN_ANOMALY":272.265,"EPHEMERIS_TYPE":0,"CLASSIFICATION_TYPE":"U","NORAD_CAT_ID":45428,"ELEMENT_SET_NO":999,"REV_AT_EPOCH":28635,"BSTAR":-0.0014574,"MEAN_MOTION_DOT":-5.04e-6,"MEAN_MOTION_DDOT":0},{"OBJECT_NAME":"ONEWEB-0081","OBJECT_ID":"2020-020F","EPOCH":"2026-02-13T00:21:55.996416","MEAN_MOTION":13.11415941,"ECCENTRICITY":0.00017,"INCLINATION":87.883,"RA_OF_ASC_NODE":45.7673,"ARG_OF_PERICENTER":80.291,"MEAN_ANOMALY":279.841,"EPHEMERIS_TYPE":0,"CLASSIFICATION_TYPE":"U","NORAD_CAT_ID":45429,"ELEMENT_SET_NO":999,"REV_AT_EPOCH":28646,"BSTAR":-0.00080064,"MEAN_MOTION_DOT":-2.71e-6,"MEAN_MOTION_DDOT":0},{"OBJECT_NAME":"ONEWEB-0069","OBJECT_ID":"2020-020G","EPOCH":"2026-02-13T00:06:05.384736","MEAN_MOTION":13.11414747,"ECCENTRICITY":0.0001813,"INCLINATION":87.8828,"RA_OF_ASC_NODE":45.7654,"ARG_OF_PERICENTER":86.1082,"MEAN_ANOMALY":274.0253,"EPHEMERIS_TYPE":0,"CLASSIFICATION_TYPE":"U","NORAD_CAT_ID":45430,"ELEMENT_SET_NO":999,"REV_AT_EPOCH":28639,"BSTAR":0.00063962,"MEAN_MOTION_DOT":2.39e-6,"MEAN_MOTION_DDOT":0},{"OBJECT_NAME":"ONEWEB-0031","OBJECT_ID":"2020-020H","EPOCH":"2026-02-13T01:15:40.150656","MEAN_MOTION":13.1141774,"ECCENTRICITY":0.000189,"INCLINATION":87.8825,"RA_OF_ASC_NODE":45.7749,"ARG_OF_PERICENTER":94.3604,"MEAN_ANOMALY":265.774,"EPHEMERIS_TYPE":0,"CLASSIFICATION_TYPE":"U","NORAD_CAT_ID":45431,"ELEMENT_SET_NO":999,"REV_AT_EPOCH":28638,"BSTAR":0.00070959,"MEAN_MOTION_DOT":2.64e-6,"MEAN_MOTION_DDOT":0},{"OBJECT_NAME":"ONEWEB-0027","OBJECT_ID":"2020-020J","EPOCH":"2026-02-12T23:57:37.954944","MEAN_MOTION":13.17650699,"ECCENTRICITY":0.000216,"INCLINATION":87.9113,"RA_OF_ASC_NODE":30.5101,"ARG_OF_PERICENTER":92.751,"MEAN_ANOMALY":267.3869,"EPHEMERIS_TYPE":0,"CLASSIFICATION_TYPE":"U","NORAD_CAT_ID":45432,"ELEMENT_SET_NO":999,"REV_AT_EPOCH":29000,"BSTAR":-0.0002428,"MEAN_MOTION_DOT":-8.1e-7,"MEAN_MOTION_DDOT":0},{"OBJECT_NAME":"ONEWEB-0064","OBJECT_ID":"2020-020K","EPOCH":"2026-02-13T01:13:13.526400","MEAN_MOTION":13.11417986,"ECCENTRICITY":0.0001917,"INCLINATION":87.8823,"RA_OF_ASC_NODE":45.7654,"ARG_OF_PERICENTER":92.1358,"MEAN_ANOMALY":267.9989,"EPHEMERIS_TYPE":0,"CLASSIFICATION_TYPE":"U","NORAD_CAT_ID":45433,"ELEMENT_SET_NO":999,"REV_AT_EPOCH":28641,"BSTAR":0.00033086,"MEAN_MOTION_DOT":1.3e-6,"MEAN_MOTION_DDOT":0},{"OBJECT_NAME":"ONEWEB-0018","OBJECT_ID":"2020-020L","EPOCH":"2026-02-13T00:09:44.285184","MEAN_MOTION":13.11413704,"ECCENTRICITY":0.0001656,"INCLINATION":87.8831,"RA_OF_ASC_NODE":45.7694,"ARG_OF_PERICENTER":90.9934,"MEAN_ANOMALY":269.1384,"EPHEMERIS_TYPE":0,"CLASSIFICATION_TYPE":"U","NORAD_CAT_ID":45434,"ELEMENT_SET_NO":999,"REV_AT_EPOCH":28635,"BSTAR":0.00026443,"MEAN_MOTION_DOT":1.06e-6,"MEAN_MOTION_DDOT":0},{"OBJECT_NAME":"ONEWEB-0083","OBJECT_ID":"2020-020M","EPOCH":"2026-02-12T23:56:19.541760","MEAN_MOTION":13.11417105,"ECCENTRICITY":0.0001815,"INCLINATION":87.883,"RA_OF_ASC_NODE":45.7588,"ARG_OF_PERICENTER":90.8002,"MEAN_ANOMALY":269.3334,"EPHEMERIS_TYPE":0,"CLASSIFICATION_TYPE":"U","NORAD_CAT_ID":45435,"ELEMENT_SET_NO":999,"REV_AT_EPOCH":28639,"BSTAR":0.0011189,"MEAN_MOTION_DOT":4.09e-6,"MEAN_MOTION_DDOT":0},{"OBJECT_NAME":"ONEWEB-0095","OBJECT_ID":"2020-020N","EPOCH":"2026-02-12T23:43:06.091680","MEAN_MOTION":13.11416989,"ECCENTRICITY":0.0002624,"INCLINATION":87.8833,"RA_OF_ASC_NODE":45.7686,"ARG_OF_PERICENTER":86.4468,"MEAN_ANOMALY":273.696,"EPHEMERIS_TYPE":0,"CLASSIFICATION_TYPE":"U","NORAD_CAT_ID":45436,"ELEMENT_SET_NO":999,"REV_AT_EPOCH":28639,"BSTAR":0.0017244,"MEAN_MOTION_DOT":6.24e-6,"MEAN_MOTION_DDOT":0}]
